STARLINK-5924           
1 55963U 23037BB  26068.88676844 -.00000038  00000+0  45803-5 0  9992
2 55963  69.9983 263.9199 0002988 270.0052  90.0765 14.98330037164507
LEMUR-2-THEFALCONER     
1 63264U 25052BG  26068.95148778  .00006306  00000+0  55972-3 0  9991
2 63264  97.6968 322.9473 0002114  10.9074 349.2193 14.96514677 53848
